[{"OBJECT_NAME":"YAOGAN-40 03A","OBJECT_ID":"2025-199A","EPOCH":"2026-03-09T23:03:31.278816","MEAN_MOTION":14.26419606,"ECCENTRICITY":0.00148498,"INCLINATION":85.9829,"RA_OF_ASC_NODE":86.7514,"ARG_OF_PERICENTER":35.6299,"MEAN_ANOMALY":324.588,"EPHEMERIS_TYPE":0,"CLASSIFICATION_TYPE":"U","NORAD_CAT_ID":65544,"ELEMENT_SET_NO":999,"REV_AT_EPOCH":2627,"BSTAR":0.00017546994,"MEAN_MOTION_DOT":4.42e-6,"MEAN_MOTION_DDOT":0},{"OBJECT_NAME":"DMSP 5D-2 F13 DEB","OBJECT_ID":"1995-015AD","EPOCH":"2026-03-09T13:00:34.988832","MEAN_MOTION":14.27787581,"ECCENTRICITY":0.00049109,"INCLINATION":98.7474,"RA_OF_ASC_NODE":94.6035,"ARG_OF_PERICENTER":40.3948,"MEAN_ANOMALY":319.7597,"EPHEMERIS_TYPE":0,"CLASSIFICATION_TYPE":"U","NORAD_CAT_ID":40416,"ELEMENT_SET_NO":999,"REV_AT_EPOCH":57153,"BSTAR":0.0010096012,"MEAN_MOTION_DOT":2.45e-5,"MEAN_MOTION_DDOT":0}]
